{"type":"FeatureCollection", "features": [
{"type":"Feature","geometry":{"type":"Point","coordinates":[86.8805960349296,27.980480509130615]},"properties":{"scalerank":1,"featurecla":"mountain","name":"Mount Everest","elevation":8848,"comment":"Worlds highest point","name_alt":"","lat_y":27.980475165,"long_x":86.880625847,"nation1":"","nation2":"","note":"","region":"Asia","subregion":"","min_zoom":4,"label":"","wikidataid":"Q513","name_ar":"جبل إفرست","name_bn":"এভারেস্ট পর্বত","name_de":"Mount Everest","name_en":"Mount Everest","name_es":"Everest","name_fr":"Everest","name_el":"Έβερεστ","name_hi":"एवरेस्ट पर्वत","name_hu":"Csomolungma","name_id":"Everest","name_it":"Everest","name_ja":"エベレスト","name_ko":"에베레스트산","name_nl":"Mount Everest","name_pl":"Mount Everest","name_pt":"Evereste","name_ru":"Джомолунгма","name_sv":"Mount Everest","name_tr":"Everest Dağı","name_vi":"Everest","name_zh":"珠穆朗玛峰","ne_id":1159105715,"name_fa":"کوه اورست","name_he":"אוורסט","name_uk":"Джомолунгма","name_ur":"ماؤنٹ ایورسٹ","name_zht":"珠穆朗瑪峰"}},
{"type":"Feature","geometry":{"type":"Point","coordinates":[37.35325164703161,-3.075714746279047]},"properties":{"scalerank":2,"featurecla":"mountain","name":"Mount Kilimanjaro","elevation":5895,"comment":"Highest point in Africa","name_alt":"","lat_y":-3.075738214,"long_x":37.353282097,"nation1":"","nation2":"","note":"","region":"Africa","subregion":"","min_zoom":5,"label":"","wikidataid":"Q7296","name_ar":"جبل كليمنجارو","name_bn":"কিলিমাঞ্জারো","name_de":"Kilimandscharo","name_en":"Mount Kilimanjaro","name_es":"Kilimanjaro","name_fr":"Kilimanjaro","name_el":"Κιλιμάντζαρο","name_hi":"किलिमंजारो","name_hu":"Kilimandzsáró","name_id":"Kilimanjaro","name_it":"Kilimangiaro","name_ja":"キリマンジャロ","name_ko":"킬리만자로산","name_nl":"Kilimanjaro","name_pl":"Kilimandżaro","name_pt":"Kilimanjaro","name_ru":"Килиманджаро","name_sv":"Kilimanjaro","name_tr":"Kilimanjaro Dağı","name_vi":"Núi Kilimanjaro","name_zh":"乞力马扎罗山","ne_id":1159105301,"name_fa":"کلیمانجارو","name_he":"קילימנג'רו","name_uk":"Кіліманджаро","name_ur":"کلیمنجارو","name_zht":"乞力马扎罗山"}},
{"type":"Feature","geometry":{"type":"Point","coordinates":[-85.633729484895,-78.52936249227913]},"properties":{"scalerank":2,"featurecla":"mountain","name":"Vinson Massif","elevation":4892,"comment":"","name_alt":"","lat_y":-78.529351495,"long_x":-85.633717414,"nation1":"","nation2":"","note":"","region":"Antarctica","subregion":"","min_zoom":5,"label":"","wikidataid":"Q163758","name_ar":"فينسون ماسيف","name_bn":"ভিনসন স্তূপপর্বত","name_de":"Vinson-Massiv","name_en":"Vinson Massif","name_es":"Macizo Vinson","name_fr":"Massif Vinson","name_el":"Όρος Βίνσεν","name_hi":"विन्सन मैसिफ़","name_hu":"Vinson Massif","name_id":"Vinson Massif","name_it":"Massiccio Vinson","name_ja":"ヴィンソン・マシフ","name_ko":"빈슨 산괴","name_nl":"Vinsonmassief","name_pl":"Masyw Vinsona","name_pt":"Maciço Vinson","name_ru":"Массив Винсон","name_sv":"Vinson Massif","name_tr":"Vinson Dağı","name_vi":"Vinson Massif","name_zh":"文森山","ne_id":1159105413,"name_fa":"توده وینسون","name_he":"וינסון מסיב","name_uk":"Масив Вінсон","name_ur":"وینسن ماسیف","name_zht":"文森山"}},
{"type":"Feature","geometry":{"type":"Point","coordinates":[89.34011996654479,42.76868522184947]},"properties":{"scalerank":2,"featurecla":"depression","name":"Turpan Depression","elevation":-154,"comment":"","name_alt":"","lat_y":42.768683173,"long_x":89.340098504,"nation1":"","nation2":"","note":"","region":"Asia","subregion":"","min_zoom":5,"label":"","wikidataid":"Q284780","name_ar":"منخفض التوربان","name_bn":"তুর্পন ডিপ্রেশন","name_de":"Turpan-Senke","name_en":"Turpan Depression","name_es":"Depresión de Turfán","name_fr":"Dépression de Tourfan","name_el":"Κοίλωμα Τουμπάν","name_hi":"तुरफ़ान द्रोणी","name_hu":"Turfani-medence","name_id":"Cekungan Turpan","name_it":"depressione di Turfan","name_ja":"トルファン盆地","name_ko":"투루판 분지","name_nl":"Turpanlaagte","name_pl":"Kotlina Turfańska","name_pt":"Depressão de Turfan","name_ru":"Турфанская впадина","name_sv":"Turpan Pendi","name_tr":"Turfan Havzası","name_vi":"Vùng trũng Thổ Lỗ Phiên","name_zh":"吐鲁番盆地","ne_id":1159105721,"name_fa":"چاله تورفان","name_he":"שקע טורפאן","name_uk":"Турфанська улоговина","name_ur":"ٹیرپان ڈیپریشن","name_zht":"吐魯番盆地"}},
{"type":"Feature","geometry":{"type":"Point","coordinates":[35.47472016487373,31.515389797694517]},"properties":{"scalerank":2,"featurecla":"depression","name":"","elevation":-416,"comment":"Worlds lowest point","name_alt":"","lat_y":31.515387274,"long_x":35.474742058,"nation1":"","nation2":"","note":"","region":"Asia","subregion":"","min_zoom":5,"label":"","wikidataid":"","name_ar":"","name_bn":"","name_de":"","name_en":"","name_es":"","name_fr":"","name_el":"","name_hi":"","name_hu":"","name_id":"","name_it":"","name_ja":"","name_ko":"","name_nl":"","name_pl":"","name_pt":"","name_ru":"","name_sv":"","name_tr":"","name_vi":"","name_zh":"","ne_id":1159105723,"name_fa":"","name_he":"","name_uk":"","name_ur":"","name_zht":""}},
{"type":"Feature","geometry":{"type":"Point","coordinates":[71.09782951165829,34.09839078145032]},"properties":{"scalerank":2,"featurecla":"pass","name":"Khyber Pass","elevation":1070,"comment":"","name_alt":"","lat_y":34.098395087,"long_x":71.097788933,"nation1":"","nation2":"","note":"","region":"Asia","subregion":"","min_zoom":5,"label":"","wikidataid":"Q191333","name_ar":"ممر خيبر","name_bn":"খাইবার গিরিপথ","name_de":"Chaiber-Pass","name_en":"Khyber Pass","name_es":"Paso Khyber","name_fr":"Passe de Khyber","name_el":"Πέρασμα Χαϊμπέρ","name_hi":"ख़ैबर दर्रा","name_hu":"Haibár-hágó","name_id":"Celah Khyber","name_it":"Passo Khyber","name_ja":"カイバル峠","name_ko":"카이베르 고개","name_nl":"Khyberpas","name_pl":"Chajber","name_pt":"Passo Khyber","name_ru":"Хайберский проход","name_sv":"Khyberpasset","name_tr":"Hayber Geçidi","name_vi":"Khyber Pass","name_zh":"开伯尔山口","ne_id":1159105727,"name_fa":"تنگه خیبر","name_he":"מעבר ח'ייבר","name_uk":"Хайберський прохід","name_ur":"درۂ خیبر","name_zht":"開伯爾山口"}},
{"type":"Feature","geometry":{"type":"Point","coordinates":[76.51320907809574,35.88240597247014]},"properties":{"scalerank":2,"featurecla":"mountain","name":"K2","elevation":8611,"comment":"","name_alt":"","lat_y":35.882391669,"long_x":76.513194207,"nation1":"","nation2":"","note":"","region":"Asia","subregion":"","min_zoom":5,"label":"","wikidataid":"Q43512","name_ar":"جبل كي 2","name_bn":"কে২","name_de":"K2","name_en":"K2","name_es":"K2","name_fr":"K2","name_el":"Κ2","name_hi":"के२","name_hu":"K2","name_id":"K2","name_it":"K2","name_ja":"K2","name_ko":"케이투","name_nl":"K2","name_pl":"K2","name_pt":"K2","name_ru":"Чогори","name_sv":"K2","name_tr":"K2 Dağı","name_vi":"K2","name_zh":"喬戈里峰","ne_id":1159105729,"name_fa":"کی۲","name_he":"K2","name_uk":"K2","name_ur":"کے ٹو","name_zht":"喬戈里峰"}},
{"type":"Feature","geometry":{"type":"Point","coordinates":[87.41319937465036,36.41650380055506]},"properties":{"scalerank":2,"featurecla":"mountain","name":"Muztag Feng","elevation":6973,"comment":"","name_alt":"Ulugh Muztag","lat_y":36.416510321,"long_x":87.413218621,"nation1":"","nation2":"","note":"","region":"Asia","subregion":"","min_zoom":5,"label":"","wikidataid":"Q1560829","name_ar":"موزتاج فينغ","name_bn":"মুজতাগ ফেং","name_de":"Ulugh Muztagh","name_en":"Ulugh Muztagh","name_es":"Ulugh Muztagh","name_fr":"Ulugh Muztagh","name_el":"Μούζταγκ Φενγκ","name_hi":"मुज़्टैग फेंग","name_hu":"Muztag Feng","name_id":"Muztag Feng","name_it":"Muztag Feng","name_ja":"ウルグ・ムズタグ山","name_ko":"무즈타그 펑","name_nl":"Ulugh Muztagh","name_pl":"Ulug Muztag","name_pt":"Ulugh Muztagh","name_ru":"Улугмузтаг","name_sv":"Muztag Feng","name_tr":"Uluğ Muzdağ","name_vi":"Núi Mộc Tư Tháp Cách Phong","name_zh":"木孜塔格山","ne_id":1159105731,"name_fa":"موزتاگ فنگ","name_he":"מוואנסה","name_uk":"Улугмузтаг","name_ur":"اولوغ موز تاغ","name_zht":"木孜塔格山"}},
{"type":"Feature","geometry":{"type":"Point","coordinates":[81.31253630588449,31.066598981098316]},"properties":{"scalerank":2,"featurecla":"mountain","name":"Kailash","elevation":6638,"comment":"","name_alt":"","lat_y":31.06659577,"long_x":81.312510613,"nation1":"","nation2":"","note":"","region":"Asia","subregion":"","min_zoom":5,"label":"","wikidataid":"Q229107","name_ar":"جبل كايلاش","name_bn":"কৈলাস পর্বত","name_de":"Kailash","name_en":"Mount Kailash","name_es":"Kailash","name_fr":"Kailash","name_el":"Καΐλας","name_hi":"कैलाश पर्वत","name_hu":"Kajlás-hegy","name_id":"Gunung Kailash","name_it":"Kailash","name_ja":"カイラス山","name_ko":"카일라스산","name_nl":"Kailash","name_pl":"Kajlas","name_pt":"Monte Kailash","name_ru":"Кайлас","name_sv":"Kailash","name_tr":"Kailaş Dağı","name_vi":"Núi Kailash","name_zh":"冈仁波齐峰","ne_id":1159105733,"name_fa":"کوه کایلاش","name_he":"הר קאילאש","name_uk":"Кайлас","name_ur":"کیلاش","name_zht":"岡仁波齊峰"}},
{"type":"Feature","geometry":{"type":"Point","coordinates":[49.00953383900048,44.257559156738566]},"properties":{"scalerank":2,"featurecla":"depression","name":"","elevation":-28,"comment":"Lowest point in Europe","name_alt":"","lat_y":44.257574774,"long_x":49.009532097,"nation1":"","nation2":"","note":"","region":"Europe","subregion":"","min_zoom":5,"label":"","wikidataid":"","name_ar":"","name_bn":"","name_de":"","name_en":"","name_es":"","name_fr":"","name_el":"","name_hi":"","name_hu":"","name_id":"","name_it":"","name_ja":"","name_ko":"","name_nl":"","name_pl":"","name_pt":"","name_ru":"","name_sv":"","name_tr":"","name_vi":"","name_zh":"","ne_id":1159105951,"name_fa":"","name_he":"","name_uk":"","name_ur":"","name_zht":""}},
{"type":"Feature","geometry":{"type":"Point","coordinates":[42.43919750811773,43.35517092583443]},"properties":{"scalerank":2,"featurecla":"mountain","name":"Gora Elbrus","elevation":5642,"comment":"Highest point in Europe","name_alt":"Mount Elbrus","lat_y":43.355169989,"long_x":42.439219597,"nation1":"","nation2":"","note":"","region":"Europe","subregion":"","min_zoom":5,"label":"","wikidataid":"Q43105","name_ar":"إلبروس","name_bn":"এলব্রুস পর্বত","name_de":"Elbrus","name_en":"Mount Elbrus","name_es":"Monte Elbrus","name_fr":"Elbrouz","name_el":"Ελμπρούς","name_hi":"एल्ब्रुस पर्वत","name_hu":"Elbrusz","name_id":"Gunung Elbrus","name_it":"monte Elbrus","name_ja":"エルブルス山","name_ko":"옐브루스산","name_nl":"Elbroes","name_pl":"Elbrus","name_pt":"Monte Elbrus","name_ru":"Эльбрус","name_sv":"Elbrus","name_tr":"Elbruz Dağı","name_vi":"Elbrus","name_zh":"厄尔布鲁士山","ne_id":1159105953,"name_fa":"البروس","name_he":"אלברוס","name_uk":"Ельбрус","name_ur":"البروس","name_zht":"厄尔布鲁士山"}},
{"type":"Feature","geometry":{"type":"Point","coordinates":[-116.82822550135457,36.24225453561077]},"properties":{"scalerank":2,"featurecla":"depression","name":"Death Valley","elevation":-86,"comment":"Lowest point in N. America","name_alt":"","lat_y":36.24225495,"long_x":-116.828236457,"nation1":"","nation2":"","note":"","region":"North America","subregion":"","min_zoom":5,"label":"","wikidataid":"Q118388","name_ar":"وادي الموت","name_bn":"ডেথ ভ্যালি","name_de":"Death Valley","name_en":"Death Valley","name_es":"Valle de la Muerte","name_fr":"vallée de la Mort","name_el":"Κοιλάδα του Θανάτου","name_hi":"डेथ वैली","name_hu":"Death Valley","name_id":"Death Valley","name_it":"Valle della Morte","name_ja":"デスヴァレー","name_ko":"데스 밸리","name_nl":"Death Valley","name_pl":"Dolina Śmierci","name_pt":"Vale da Morte","name_ru":"Долина Смерти","name_sv":"Death Valley","name_tr":"Death Valley","name_vi":"Thung lũng Chết","name_zh":"死亡谷","ne_id":1159106291,"name_fa":"دث ولی","name_he":"עמק המוות","name_uk":"Долина Смерті","name_ur":"وادئ موت","name_zht":"死亡谷"}},
{"type":"Feature","geometry":{"type":"Point","coordinates":[-151.0072955641745,63.06941124467545]},"properties":{"scalerank":2,"featurecla":"mountain","name":"Denali","elevation":6194,"comment":"Highest point in N. America","name_alt":"Mt. McKinley","lat_y":63.069403387,"long_x":-151.007313606,"nation1":"","nation2":"","note":"","region":"North America","subregion":"","min_zoom":5,"label":"","wikidataid":"Q130018","name_ar":"دينالي","name_bn":"দেনালি","name_de":"Denali","name_en":"Denali","name_es":"Denali","name_fr":"Denali","name_el":"Όρος ΜακΚίνλεϊ","name_hi":"देनाली","name_hu":"Denali","name_id":"Denali","name_it":"Denali","name_ja":"デナリ","name_ko":"다닐리산","name_nl":"Denali","name_pl":"Denali","name_pt":"Monte Denali","name_ru":"Денали","name_sv":"Denali","name_tr":"Denali Dağı","name_vi":"Denali","name_zh":"丹奈利峰","ne_id":1159106297,"name_fa":"مککینلی","name_he":"הר דנאלי","name_uk":"Деналі","name_ur":"کوہ مک کینلی","name_zht":"丹奈利峰"}},
{"type":"Feature","geometry":{"type":"Point","coordinates":[-118.29221822455945,36.582715141594875]},"properties":{"scalerank":2,"featurecla":"mountain","name":"Mount Whitney","elevation":4421,"comment":"","name_alt":"","lat_y":36.582709052,"long_x":-118.292225715,"nation1":"","nation2":"","note":"","region":"North America","subregion":"","min_zoom":5,"label":"","wikidataid":"Q235539","name_ar":"جبل ويتني","name_bn":"মাউন্ট হুইটনি","name_de":"Mount Whitney","name_en":"Mount Whitney","name_es":"Monte Whitney","name_fr":"mont Whitney","name_el":"Όρος Χουίτνυ","name_hi":"व्हिटनी पर्वत","name_hu":"Mount Whitney","name_id":"Gunung Whitney","name_it":"Monte Whitney","name_ja":"ホイットニー山","name_ko":"휘트니산","name_nl":"Mount Whitney","name_pl":"Mount Whitney","name_pt":"Monte Whitney","name_ru":"Уитни","name_sv":"Mount Whitney","name_tr":"Whitney Dağı","name_vi":"Núi Whitney","name_zh":"惠特尼峰","ne_id":1159106313,"name_fa":"کوه ویتنی","name_he":"הר ויטני","name_uk":"Гора Уїтні","name_ur":"ماؤنٹ وہائٹنی","name_zht":"惠特尼峰"}},
{"type":"Feature","geometry":{"type":"Point","coordinates":[137.2844376526123,-28.448653493871916]},"properties":{"scalerank":2,"featurecla":"depression","name":"","elevation":-16,"comment":"Lowest point in Australia","name_alt":"","lat_y":-28.448663019,"long_x":137.284434441,"nation1":"","nation2":"","note":"","region":"Oceania","subregion":"Australia","min_zoom":5,"label":"","wikidataid":"","name_ar":"","name_bn":"","name_de":"","name_en":"","name_es":"","name_fr":"","name_el":"","name_hi":"","name_hu":"","name_id":"","name_it":"","name_ja":"","name_ko":"","name_nl":"","name_pl":"","name_pt":"","name_ru":"","name_sv":"","name_tr":"","name_vi":"","name_zh":"","ne_id":1159106743,"name_fa":"","name_he":"","name_uk":"","name_ur":"","name_zht":""}},
{"type":"Feature","geometry":{"type":"Point","coordinates":[148.26319152511533,-36.45587979951783]},"properties":{"scalerank":2,"featurecla":"mountain","name":"Mount Kosciuszko","elevation":2228,"comment":"Highest point in Australia","name_alt":"","lat_y":-36.455865167,"long_x":148.263194207,"nation1":"","nation2":"","note":"","region":"Oceania","subregion":"Australia","min_zoom":5,"label":"","wikidataid":"Q178167","name_ar":"جبل كوسيياسكو","name_bn":"কস্চিয়স্কো পর্বত","name_de":"Mount Kosciuszko","name_en":"Mount Kosciuszko","name_es":"Monte Kosciuszko","name_fr":"mont Kosciuszko","name_el":"Κόσιουσκο","name_hi":"कोज़िअस्को पर्वत","name_hu":"Mount Kosciuszko","name_id":"Gunung Kosciuszko","name_it":"Monte Kosciuszko","name_ja":"コジオスコ","name_ko":"코지어스코산","name_nl":"Mount Kosciuszko","name_pl":"Góra Kościuszki","name_pt":"Monte Kosciuszko","name_ru":"Косцюшко","name_sv":"Mount Kosciuszko","name_tr":"Kosciuszko Dağı","name_vi":"Núi Kosciuszko","name_zh":"科修斯科山","ne_id":1159106753,"name_fa":"کوه کازیسکو","name_he":"הר קושצ'ושקו","name_uk":"Косцюшко","name_ur":"کوہ کازیسکو","name_zht":"科修斯科山"}},
{"type":"Feature","geometry":{"type":"Point","coordinates":[-70.01580098903159,-32.65567863052878]},"properties":{"scalerank":2,"featurecla":"mountain","name":"Cerro Aconcagua","elevation":6959,"comment":"Highest point in S. America","name_alt":"","lat_y":-32.655694269,"long_x":-70.015797493,"nation1":"","nation2":"","note":"","region":"South America","subregion":"","min_zoom":5,"label":"","wikidataid":"Q39739","name_ar":"أكونكاغوا","name_bn":"অ্যাকনকাগুয়া পর্বত","name_de":"Aconcagua","name_en":"Aconcagua","name_es":"Aconcagua","name_fr":"Aconcagua","name_el":"Ακονκάγκουα","name_hi":"अकोंकागुआ","name_hu":"Aconcagua","name_id":"Akonkagua","name_it":"Aconcagua","name_ja":"アコンカグア","name_ko":"아콩카과산","name_nl":"Aconcagua","name_pl":"Aconcagua","name_pt":"Aconcágua","name_ru":"Аконкагуа","name_sv":"Aconcagua","name_tr":"Aconcagua","name_vi":"Aconcagua","name_zh":"阿空加瓜山","ne_id":1159108719,"name_fa":"آکونکاگوا","name_he":"אקונקגווה","name_uk":"Аконкаґуа","name_ur":"اکنکاگوا","name_zht":"阿空加瓜山"}},
{"type":"Feature","geometry":{"type":"Point","coordinates":[-63.96877793506543,-42.62399680255744]},"properties":{"scalerank":2,"featurecla":"depression","name":"","elevation":-40,"comment":"Lowest point in S. America","name_alt":"","lat_y":-42.623955988,"long_x":-63.968800422,"nation1":"","nation2":"","note":"","region":"South America","subregion":"","min_zoom":5,"label":"","wikidataid":"","name_ar":"","name_bn":"","name_de":"","name_en":"","name_es":"","name_fr":"","name_el":"","name_hi":"","name_hu":"","name_id":"","name_it":"","name_ja":"","name_ko":"","name_nl":"","name_pl":"","name_pt":"","name_ru":"","name_sv":"","name_tr":"","name_vi":"","name_zh":"","ne_id":1159108751,"name_fa":"","name_he":"","name_uk":"","name_ur":"","name_zht":""}},
{"type":"Feature","geometry":{"type":"Point","coordinates":[-66.3755908581613,5.4516742932455315]},"properties":{"scalerank":2,"featurecla":"mountain","name":"Cero Raya","elevation":2070,"comment":"","name_alt":"","lat_y":5.451666571,"long_x":-66.375599739,"nation1":"","nation2":"","note":"","region":"South America","subregion":"","min_zoom":5,"label":"","wikidataid":"","name_ar":"سيرو رايا","name_bn":"সেরো রায়া","name_de":"Cero Raya","name_en":"Cerro La Raya","name_es":"Cero Raya","name_fr":"Cero Raya","name_el":"Τσερό Ράγια","name_hi":"सेरो राया","name_hu":"Cero Raya","name_id":"Cero Raya","name_it":"Cero Raya","name_ja":"セロ・ラヤ山","name_ko":"세로 라야","name_nl":"Cero Raya","name_pl":"Cero Raya","name_pt":"Cero Raya","name_ru":"Серо-Райя","name_sv":"Cero Raya","name_tr":"Cero Raya","name_vi":"Núi Cero Raya","name_zh":"莱雅山","ne_id":1159108759,"name_fa":"سرو رایا","name_he":"הר ראיה","name_uk":"Серо-Райа","name_ur":"کیرو رایا","name_zht":"拉雅山"}}
]}